<?xml version="1.0" encoding="UTF-8"?>
<gpx version="1.1" creator="hiking-planning/fetch-osm-route" xmlns="http://www.topografix.com/GPX/1/1">
  <trk>
    <name>G02</name>
    <trkseg>
      <trkpt lat="23.4663425" lon="120.9499197"></trkpt>
      <trkpt lat="23.4663387" lon="120.9499238"></trkpt>
      <trkpt lat="23.4663367" lon="120.9499284"></trkpt>
      <trkpt lat="23.4663392" lon="120.9499331"></trkpt>
      <trkpt lat="23.466374" lon="120.9499806"></trkpt>
      <trkpt lat="23.4663754" lon="120.9499833"></trkpt>
      <trkpt lat="23.4663759" lon="120.9499852"></trkpt>
      <trkpt lat="23.4663746" lon="120.9499883"></trkpt>
      <trkpt lat="23.4662556" lon="120.950098"></trkpt>
      <trkpt lat="23.4663846" lon="120.9502823"></trkpt>
      <trkpt lat="23.4664012" lon="120.9504148"></trkpt>
      <trkpt lat="23.4663747" lon="120.9505201"></trkpt>
      <trkpt lat="23.4663824" lon="120.9507513"></trkpt>
      <trkpt lat="23.4663108" lon="120.9509554"></trkpt>
      <trkpt lat="23.4661787" lon="120.9511636"></trkpt>
      <trkpt lat="23.4661275" lon="120.9513446"></trkpt>
      <trkpt lat="23.4661027" lon="120.9515092"></trkpt>
      <trkpt lat="23.4661107" lon="120.9515586"></trkpt>
      <trkpt lat="23.4662417" lon="120.9514231"></trkpt>
      <trkpt lat="23.466235" lon="120.9515712"></trkpt>
      <trkpt lat="23.4662472" lon="120.9516153"></trkpt>
      <trkpt lat="23.4663198" lon="120.951512"></trkpt>
      <trkpt lat="23.466369" lon="120.9514972"></trkpt>
      <trkpt lat="23.4663707" lon="120.9516803"></trkpt>
      <trkpt lat="23.4664453" lon="120.9515638"></trkpt>
      <trkpt lat="23.466475" lon="120.9515795"></trkpt>
      <trkpt lat="23.4664529" lon="120.9518263"></trkpt>
      <trkpt lat="23.4664738" lon="120.9519573"></trkpt>
      <trkpt lat="23.4664947" lon="120.9520882"></trkpt>
      <trkpt lat="23.4664612" lon="120.9522501"></trkpt>
      <trkpt lat="23.4664639" lon="120.9523767"></trkpt>
      <trkpt lat="23.4663859" lon="120.9524684"></trkpt>
      <trkpt lat="23.4663781" lon="120.9525473"></trkpt>
      <trkpt lat="23.4664292" lon="120.9526188"></trkpt>
      <trkpt lat="23.4664882" lon="120.952538"></trkpt>
      <trkpt lat="23.4665842" lon="120.9525055"></trkpt>
      <trkpt lat="23.4666132" lon="120.9525176"></trkpt>
      <trkpt lat="23.4667024" lon="120.9525914"></trkpt>
      <trkpt lat="23.4667388" lon="120.952702"></trkpt>
      <trkpt lat="23.4668196" lon="120.9526524"></trkpt>
      <trkpt lat="23.4668355" lon="120.9527457"></trkpt>
      <trkpt lat="23.466811" lon="120.9528325"></trkpt>
      <trkpt lat="23.4665983" lon="120.9530509"></trkpt>
      <trkpt lat="23.4666817" lon="120.9530499"></trkpt>
      <trkpt lat="23.4666256" lon="120.9532279"></trkpt>
      <trkpt lat="23.4668788" lon="120.9530722"></trkpt>
      <trkpt lat="23.4671165" lon="120.953072"></trkpt>
      <trkpt lat="23.4670203" lon="120.9531496"></trkpt>
      <trkpt lat="23.4670345" lon="120.9532681"></trkpt>
      <trkpt lat="23.4669295" lon="120.9533478"></trkpt>
      <trkpt lat="23.4669226" lon="120.9537397"></trkpt>
      <trkpt lat="23.4669122" lon="120.9539815"></trkpt>
      <trkpt lat="23.4670652" lon="120.9538294"></trkpt>
      <trkpt lat="23.4671631" lon="120.9537552"></trkpt>
      <trkpt lat="23.4671062" lon="120.9541354"></trkpt>
      <trkpt lat="23.4671996" lon="120.9542967"></trkpt>
      <trkpt lat="23.4672149" lon="120.9544355"></trkpt>
      <trkpt lat="23.4672372" lon="120.9545038"></trkpt>
      <trkpt lat="23.4672707" lon="120.9544684"></trkpt>
      <trkpt lat="23.4673953" lon="120.9542692"></trkpt>
      <trkpt lat="23.4674019" lon="120.9544174"></trkpt>
      <trkpt lat="23.4674919" lon="120.9545967"></trkpt>
      <trkpt lat="23.4677613" lon="120.9542271"></trkpt>
      <trkpt lat="23.4681655" lon="120.954012"></trkpt>
      <trkpt lat="23.4680458" lon="120.9545823"></trkpt>
      <trkpt lat="23.4680313" lon="120.9548187"></trkpt>
      <trkpt lat="23.46807" lon="120.9548781"></trkpt>
      <trkpt lat="23.4681276" lon="120.9547876"></trkpt>
      <trkpt lat="23.4685718" lon="120.9544216"></trkpt>
      <trkpt lat="23.4686493" lon="120.954304"></trkpt>
      <trkpt lat="23.4688705" lon="120.9540754"></trkpt>
      <trkpt lat="23.4688572" lon="120.9543248"></trkpt>
      <trkpt lat="23.468808" lon="120.9546712"></trkpt>
      <trkpt lat="23.4687348" lon="120.9548961"></trkpt>
      <trkpt lat="23.4687053" lon="120.9550698"></trkpt>
      <trkpt lat="23.4686611" lon="120.9552194"></trkpt>
      <trkpt lat="23.4687607" lon="120.9551477"></trkpt>
      <trkpt lat="23.4689186" lon="120.9549446"></trkpt>
      <trkpt lat="23.4690465" lon="120.9548454"></trkpt>
      <trkpt lat="23.4690996" lon="120.9547895"></trkpt>
      <trkpt lat="23.4691355" lon="120.9546885"></trkpt>
      <trkpt lat="23.4692048" lon="120.9546425"></trkpt>
      <trkpt lat="23.4692927" lon="120.954465"></trkpt>
      <trkpt lat="23.4693228" lon="120.9545074"></trkpt>
      <trkpt lat="23.4691973" lon="120.9552487"></trkpt>
      <trkpt lat="23.4692318" lon="120.9552287"></trkpt>
      <trkpt lat="23.4693469" lon="120.9550773"></trkpt>
      <trkpt lat="23.4693665" lon="120.9551603"></trkpt>
      <trkpt lat="23.4693648" lon="120.9552329"></trkpt>
      <trkpt lat="23.4693045" lon="120.9553571"></trkpt>
      <trkpt lat="23.4692982" lon="120.955456"></trkpt>
      <trkpt lat="23.4692595" lon="120.9555287"></trkpt>
      <trkpt lat="23.469269" lon="120.9556452"></trkpt>
      <trkpt lat="23.469329" lon="120.9556197"></trkpt>
      <trkpt lat="23.4693793" lon="120.9555605"></trkpt>
      <trkpt lat="23.4694331" lon="120.955493"></trkpt>
      <trkpt lat="23.4694301" lon="120.9555944"></trkpt>
      <trkpt lat="23.4694214" lon="120.9556672"></trkpt>
      <trkpt lat="23.4694392" lon="120.9556991"></trkpt>
      <trkpt lat="23.4694436" lon="120.9557297"></trkpt>
      <trkpt lat="23.4694543" lon="120.9558428"></trkpt>
      <trkpt lat="23.4694114" lon="120.9558813"></trkpt>
      <trkpt lat="23.4693728" lon="120.9559064"></trkpt>
      <trkpt lat="23.4693009" lon="120.9559791"></trkpt>
      <trkpt lat="23.4692047" lon="120.9559984"></trkpt>
      <trkpt lat="23.4691728" lon="120.9560321"></trkpt>
      <trkpt lat="23.4691714" lon="120.9560597"></trkpt>
      <trkpt lat="23.4692189" lon="120.9560367"></trkpt>
      <trkpt lat="23.4692799" lon="120.9560407"></trkpt>
      <trkpt lat="23.46934" lon="120.9560122"></trkpt>
      <trkpt lat="23.4694575" lon="120.9560044"></trkpt>
      <trkpt lat="23.469492" lon="120.9560381"></trkpt>
      <trkpt lat="23.4694747" lon="120.9560739"></trkpt>
      <trkpt lat="23.4695373" lon="120.9560746"></trkpt>
      <trkpt lat="23.4695664" lon="120.9560441"></trkpt>
      <trkpt lat="23.4696141" lon="120.9560287"></trkpt>
      <trkpt lat="23.4695941" lon="120.9560924"></trkpt>
      <trkpt lat="23.4696004" lon="120.9561552"></trkpt>
      <trkpt lat="23.4696611" lon="120.9561501"></trkpt>
      <trkpt lat="23.4697152" lon="120.9561017"></trkpt>
      <trkpt lat="23.4697685" lon="120.9560772"></trkpt>
      <trkpt lat="23.4699203" lon="120.956035"></trkpt>
      <trkpt lat="23.4700044" lon="120.95611"></trkpt>
      <trkpt lat="23.4701131" lon="120.9561448"></trkpt>
      <trkpt lat="23.4702601" lon="120.9561503"></trkpt>
      <trkpt lat="23.4703322" lon="120.9560857"></trkpt>
      <trkpt lat="23.4704303" lon="120.9560529"></trkpt>
      <trkpt lat="23.4704219" lon="120.95624"></trkpt>
      <trkpt lat="23.4703861" lon="120.9563145"></trkpt>
      <trkpt lat="23.4704226" lon="120.956427"></trkpt>
      <trkpt lat="23.4702996" lon="120.9565182"></trkpt>
      <trkpt lat="23.4702833" lon="120.9565877"></trkpt>
      <trkpt lat="23.4701042" lon="120.9566749"></trkpt>
      <trkpt lat="23.4700256" lon="120.9568109"></trkpt>
      <trkpt lat="23.470145" lon="120.9568322"></trkpt>
      <trkpt lat="23.4701047" lon="120.9569444"></trkpt>
      <trkpt lat="23.4701472" lon="120.9570245"></trkpt>
      <trkpt lat="23.4701164" lon="120.9571955"></trkpt>
      <trkpt lat="23.4700025" lon="120.9572707"></trkpt>
    </trkseg>
    <trkseg>
      <trkpt lat="23.4663767" lon="120.9498831"></trkpt>
      <trkpt lat="23.4663438" lon="120.9499183"></trkpt>
    </trkseg>
    <trkseg>
      <trkpt lat="23.466381" lon="120.9498449"></trkpt>
      <trkpt lat="23.466369" lon="120.949856"></trkpt>
      <trkpt lat="23.4663831" lon="120.9498762"></trkpt>
      <trkpt lat="23.466378" lon="120.9498817"></trkpt>
    </trkseg>
    <trkseg>
      <trkpt lat="23.4665575" lon="120.9496814"></trkpt>
      <trkpt lat="23.4664678" lon="120.949761"></trkpt>
      <trkpt lat="23.4663827" lon="120.9498435"></trkpt>
    </trkseg>
    <trkseg>
      <trkpt lat="23.4757522" lon="120.8999713"></trkpt>
      <trkpt lat="23.4757392" lon="120.9001756"></trkpt>
      <trkpt lat="23.4757398" lon="120.9002638"></trkpt>
      <trkpt lat="23.4757758" lon="120.9003795"></trkpt>
      <trkpt lat="23.4758014" lon="120.9004755"></trkpt>
      <trkpt lat="23.4758072" lon="120.9005776"></trkpt>
      <trkpt lat="23.4758108" lon="120.9006354"></trkpt>
      <trkpt lat="23.4758152" lon="120.9006963"></trkpt>
      <trkpt lat="23.4759182" lon="120.9008303"></trkpt>
      <trkpt lat="23.4759752" lon="120.9009643"></trkpt>
      <trkpt lat="23.4759799" lon="120.9010442"></trkpt>
      <trkpt lat="23.4759636" lon="120.9012262"></trkpt>
      <trkpt lat="23.475931" lon="120.9013296"></trkpt>
      <trkpt lat="23.475976" lon="120.9014314"></trkpt>
      <trkpt lat="23.4759911" lon="120.9014773"></trkpt>
      <trkpt lat="23.4759894" lon="120.9016024"></trkpt>
      <trkpt lat="23.4759611" lon="120.9017221"></trkpt>
      <trkpt lat="23.4759209" lon="120.9018132"></trkpt>
      <trkpt lat="23.4757903" lon="120.9019472"></trkpt>
      <trkpt lat="23.47577" lon="120.902045"></trkpt>
      <trkpt lat="23.4757875" lon="120.9021566"></trkpt>
      <trkpt lat="23.4757812" lon="120.9022653"></trkpt>
      <trkpt lat="23.4757761" lon="120.9023995"></trkpt>
      <trkpt lat="23.4758023" lon="120.9025548"></trkpt>
      <trkpt lat="23.4756998" lon="120.9026896"></trkpt>
      <trkpt lat="23.4756016" lon="120.9030493"></trkpt>
      <trkpt lat="23.4755406" lon="120.9031673"></trkpt>
      <trkpt lat="23.4753993" lon="120.9032597"></trkpt>
      <trkpt lat="23.4753918" lon="120.9033779"></trkpt>
      <trkpt lat="23.4752401" lon="120.9035143"></trkpt>
      <trkpt lat="23.4751291" lon="120.9036042"></trkpt>
      <trkpt lat="23.4750492" lon="120.9036901"></trkpt>
      <trkpt lat="23.4749129" lon="120.9037776"></trkpt>
      <trkpt lat="23.47475" lon="120.9039878"></trkpt>
      <trkpt lat="23.4746265" lon="120.9041179"></trkpt>
      <trkpt lat="23.4745587" lon="120.9041764"></trkpt>
      <trkpt lat="23.4744685" lon="120.9042166"></trkpt>
      <trkpt lat="23.474363" lon="120.9043107"></trkpt>
      <trkpt lat="23.4743028" lon="120.9044375"></trkpt>
      <trkpt lat="23.4741832" lon="120.9046243"></trkpt>
      <trkpt lat="23.474131" lon="120.9047558"></trkpt>
      <trkpt lat="23.4740471" lon="120.9048445"></trkpt>
      <trkpt lat="23.4739854" lon="120.9049136"></trkpt>
      <trkpt lat="23.4739365" lon="120.9049387"></trkpt>
      <trkpt lat="23.4739008" lon="120.9049979"><ele>2675.0</ele></trkpt>
      <trkpt lat="23.4737369" lon="120.9050437"></trkpt>
      <trkpt lat="23.4735838" lon="120.905233"></trkpt>
      <trkpt lat="23.4735442" lon="120.905304"></trkpt>
      <trkpt lat="23.4734697" lon="120.9053813"></trkpt>
      <trkpt lat="23.4733702" lon="120.905422"></trkpt>
      <trkpt lat="23.4733603" lon="120.9054872"></trkpt>
      <trkpt lat="23.47333" lon="120.9055529"></trkpt>
      <trkpt lat="23.4733405" lon="120.905569"></trkpt>
      <trkpt lat="23.4733977" lon="120.9055321"></trkpt>
      <trkpt lat="23.4734434" lon="120.9054847"></trkpt>
      <trkpt lat="23.4734524" lon="120.9055026"></trkpt>
      <trkpt lat="23.4734597" lon="120.9055899"></trkpt>
      <trkpt lat="23.4734799" lon="120.9056226"></trkpt>
      <trkpt lat="23.4735255" lon="120.9056077"></trkpt>
      <trkpt lat="23.4736242" lon="120.9054707"></trkpt>
      <trkpt lat="23.4736649" lon="120.9054303"></trkpt>
      <trkpt lat="23.4737428" lon="120.9053942"></trkpt>
      <trkpt lat="23.4737951" lon="120.9054001"></trkpt>
      <trkpt lat="23.4739472" lon="120.9053987"></trkpt>
      <trkpt lat="23.4740564" lon="120.9054064"></trkpt>
      <trkpt lat="23.4739574" lon="120.9054754"></trkpt>
      <trkpt lat="23.4738824" lon="120.9055033"></trkpt>
      <trkpt lat="23.4738264" lon="120.9055664"></trkpt>
      <trkpt lat="23.4736923" lon="120.9058704"></trkpt>
      <trkpt lat="23.4736546" lon="120.9059508"></trkpt>
      <trkpt lat="23.4735877" lon="120.9060238"></trkpt>
      <trkpt lat="23.473582" lon="120.9060573"></trkpt>
      <trkpt lat="23.4737265" lon="120.9059652"></trkpt>
      <trkpt lat="23.4737688" lon="120.9059318"></trkpt>
      <trkpt lat="23.4738856" lon="120.9058324"></trkpt>
      <trkpt lat="23.4739461" lon="120.9057971"></trkpt>
      <trkpt lat="23.4739796" lon="120.9057831"></trkpt>
      <trkpt lat="23.4740813" lon="120.905762"></trkpt>
      <trkpt lat="23.4741734" lon="120.9057387"></trkpt>
      <trkpt lat="23.4742317" lon="120.9057447"></trkpt>
      <trkpt lat="23.4743281" lon="120.9057049"></trkpt>
      <trkpt lat="23.4744098" lon="120.9056808"></trkpt>
      <trkpt lat="23.4744411" lon="120.9056927"></trkpt>
      <trkpt lat="23.4744132" lon="120.9057315"><ele>2755.0</ele></trkpt>
      <trkpt lat="23.474361" lon="120.9057547"></trkpt>
      <trkpt lat="23.4742699" lon="120.905814"></trkpt>
      <trkpt lat="23.4742459" lon="120.905865"></trkpt>
      <trkpt lat="23.4741182" lon="120.905925"></trkpt>
      <trkpt lat="23.4740625" lon="120.9059941"></trkpt>
      <trkpt lat="23.474008" lon="120.9060893"></trkpt>
      <trkpt lat="23.4739192" lon="120.9062117"></trkpt>
      <trkpt lat="23.4738683" lon="120.9062603"></trkpt>
      <trkpt lat="23.473823" lon="120.9064563"></trkpt>
      <trkpt lat="23.4737586" lon="120.906542"></trkpt>
      <trkpt lat="23.4736907" lon="120.906709"></trkpt>
      <trkpt lat="23.4736419" lon="120.9067718"></trkpt>
      <trkpt lat="23.4736262" lon="120.9068497"></trkpt>
      <trkpt lat="23.473488" lon="120.9070873"></trkpt>
      <trkpt lat="23.4735227" lon="120.9071129"></trkpt>
      <trkpt lat="23.4734847" lon="120.9071749"></trkpt>
      <trkpt lat="23.4732972" lon="120.9072467"></trkpt>
      <trkpt lat="23.4732088" lon="120.9072963"></trkpt>
      <trkpt lat="23.4732008" lon="120.9073664"></trkpt>
      <trkpt lat="23.4731836" lon="120.9074388"></trkpt>
      <trkpt lat="23.4732043" lon="120.9074925"></trkpt>
      <trkpt lat="23.473263" lon="120.9075791"></trkpt>
      <trkpt lat="23.4733208" lon="120.9076327"></trkpt>
      <trkpt lat="23.4733329" lon="120.9076704"></trkpt>
      <trkpt lat="23.4733225" lon="120.9077626"></trkpt>
      <trkpt lat="23.4732906" lon="120.9078426"></trkpt>
      <trkpt lat="23.4732146" lon="120.9079339"></trkpt>
      <trkpt lat="23.4731715" lon="120.9080148"></trkpt>
      <trkpt lat="23.4731464" lon="120.9081099"></trkpt>
      <trkpt lat="23.4731394" lon="120.9082278"></trkpt>
      <trkpt lat="23.4731411" lon="120.9083595"></trkpt>
      <trkpt lat="23.4731342" lon="120.9084866"></trkpt>
      <trkpt lat="23.473104" lon="120.9086522"></trkpt>
      <trkpt lat="23.4730419" lon="120.9087849"></trkpt>
      <trkpt lat="23.4729659" lon="120.9088706"></trkpt>
      <trkpt lat="23.4728992" lon="120.9089542"></trkpt>
      <trkpt lat="23.4727222" lon="120.9091978"></trkpt>
      <trkpt lat="23.4727014" lon="120.9092417"></trkpt>
      <trkpt lat="23.4726978" lon="120.9093029"></trkpt>
      <trkpt lat="23.4727381" lon="120.9094919"></trkpt>
      <trkpt lat="23.4727393" lon="120.9095318"></trkpt>
      <trkpt lat="23.4724575" lon="120.9101593"></trkpt>
      <trkpt lat="23.4723712" lon="120.910372"></trkpt>
      <trkpt lat="23.4723228" lon="120.9104605"></trkpt>
      <trkpt lat="23.4722866" lon="120.9104868"></trkpt>
      <trkpt lat="23.4722158" lon="120.9105056"></trkpt>
      <trkpt lat="23.4720839" lon="120.9105191"></trkpt>
      <trkpt lat="23.4719199" lon="120.9105473"></trkpt>
      <trkpt lat="23.4718664" lon="120.910568"></trkpt>
      <trkpt lat="23.4717991" lon="120.9106057"></trkpt>
      <trkpt lat="23.4716903" lon="120.9107073"></trkpt>
      <trkpt lat="23.4715902" lon="120.910777"></trkpt>
      <trkpt lat="23.4715661" lon="120.9107969"></trkpt>
      <trkpt lat="23.4714831" lon="120.9108654"></trkpt>
      <trkpt lat="23.4714417" lon="120.9109087"></trkpt>
      <trkpt lat="23.4714141" lon="120.9109821"></trkpt>
      <trkpt lat="23.4713847" lon="120.9111289"></trkpt>
      <trkpt lat="23.4713395" lon="120.911466"></trkpt>
      <trkpt lat="23.4713097" lon="120.9115827"></trkpt>
      <trkpt lat="23.4712708" lon="120.9116383"></trkpt>
      <trkpt lat="23.471188" lon="120.9116928"></trkpt>
      <trkpt lat="23.4711016" lon="120.911787"></trkpt>
      <trkpt lat="23.4710521" lon="120.9118876"></trkpt>
      <trkpt lat="23.4710338" lon="120.9119675"></trkpt>
      <trkpt lat="23.4710546" lon="120.9120287"></trkpt>
      <trkpt lat="23.4711486" lon="120.9121458"></trkpt>
      <trkpt lat="23.4711657" lon="120.9121857"></trkpt>
      <trkpt lat="23.4711767" lon="120.9122696"></trkpt>
      <trkpt lat="23.471162" lon="120.9123347"></trkpt>
      <trkpt lat="23.4710398" lon="120.9125113"></trkpt>
      <trkpt lat="23.4710375" lon="120.9126236"></trkpt>
      <trkpt lat="23.4710623" lon="120.9126771"></trkpt>
      <trkpt lat="23.4710582" lon="120.9127418"></trkpt>
      <trkpt lat="23.4710029" lon="120.9128311"></trkpt>
      <trkpt lat="23.4708484" lon="120.9129698"></trkpt>
      <trkpt lat="23.4707504" lon="120.912979"></trkpt>
      <trkpt lat="23.4707357" lon="120.9130459"></trkpt>
      <trkpt lat="23.4708031" lon="120.9134945"></trkpt>
      <trkpt lat="23.4707958" lon="120.9135598"></trkpt>
      <trkpt lat="23.4707663" lon="120.9136491"></trkpt>
      <trkpt lat="23.4707495" lon="120.9137261"></trkpt>
      <trkpt lat="23.4706626" lon="120.9138044"></trkpt>
      <trkpt lat="23.4706162" lon="120.9138191"></trkpt>
      <trkpt lat="23.4705576" lon="120.9138204"></trkpt>
      <trkpt lat="23.4704026" lon="120.9138104"></trkpt>
      <trkpt lat="23.4703806" lon="120.9138157"></trkpt>
      <trkpt lat="23.470366" lon="120.9139014"></trkpt>
      <trkpt lat="23.4703818" lon="120.9140473"></trkpt>
      <trkpt lat="23.470429" lon="120.9143955"></trkpt>
      <trkpt lat="23.4704425" lon="120.9144307"></trkpt>
      <trkpt lat="23.4704663" lon="120.9144547"></trkpt>
      <trkpt lat="23.4706643" lon="120.9146033"></trkpt>
      <trkpt lat="23.4707434" lon="120.914611"></trkpt>
      <trkpt lat="23.4707876" lon="120.9146257"></trkpt>
      <trkpt lat="23.4708135" lon="120.914859"></trkpt>
      <trkpt lat="23.4709" lon="120.9150088"></trkpt>
      <trkpt lat="23.4709181" lon="120.9150417"></trkpt>
      <trkpt lat="23.4709423" lon="120.9150587"></trkpt>
      <trkpt lat="23.4710718" lon="120.9150813"></trkpt>
      <trkpt lat="23.4710951" lon="120.915101"></trkpt>
      <trkpt lat="23.4711037" lon="120.9151377"></trkpt>
      <trkpt lat="23.4710968" lon="120.9151989"></trkpt>
      <trkpt lat="23.4710994" lon="120.9152271"></trkpt>
      <trkpt lat="23.4711124" lon="120.9152488"></trkpt>
      <trkpt lat="23.4712462" lon="120.9153716"></trkpt>
      <trkpt lat="23.4713039" lon="120.9154409"></trkpt>
      <trkpt lat="23.4713479" lon="120.9156278"></trkpt>
      <trkpt lat="23.4713317" lon="120.9157229"></trkpt>
      <trkpt lat="23.4713244" lon="120.9157882"></trkpt>
      <trkpt lat="23.4712914" lon="120.9158787"></trkpt>
      <trkpt lat="23.4712218" lon="120.9159891"></trkpt>
      <trkpt lat="23.4711351" lon="120.9160903"></trkpt>
      <trkpt lat="23.4710685" lon="120.91611"></trkpt>
      <trkpt lat="23.4710558" lon="120.9161329"></trkpt>
      <trkpt lat="23.4709592" lon="120.9161646"></trkpt>
      <trkpt lat="23.4708467" lon="120.9162632"></trkpt>
      <trkpt lat="23.4708102" lon="120.9163764"></trkpt>
      <trkpt lat="23.4707923" lon="120.9165305"></trkpt>
      <trkpt lat="23.4706698" lon="120.9167543"></trkpt>
      <trkpt lat="23.47066" lon="120.9168513"></trkpt>
      <trkpt lat="23.4707383" lon="120.9169789"></trkpt>
      <trkpt lat="23.4707982" lon="120.9170803"></trkpt>
      <trkpt lat="23.4708259" lon="120.9172037"></trkpt>
      <trkpt lat="23.4708173" lon="120.9172744"></trkpt>
      <trkpt lat="23.4707931" lon="120.9173629"></trkpt>
      <trkpt lat="23.4707064" lon="120.9174772"></trkpt>
      <trkpt lat="23.4706018" lon="120.9175676"></trkpt>
      <trkpt lat="23.470512" lon="120.9176889"></trkpt>
      <trkpt lat="23.4704824" lon="120.9178246"></trkpt>
      <trkpt lat="23.4704809" lon="120.9179561"></trkpt>
      <trkpt lat="23.4704775" lon="120.9180747"></trkpt>
      <trkpt lat="23.4704854" lon="120.9181751"></trkpt>
      <trkpt lat="23.4705446" lon="120.9182769"></trkpt>
      <trkpt lat="23.4706563" lon="120.9184145"></trkpt>
      <trkpt lat="23.470787" lon="120.9185222"></trkpt>
      <trkpt lat="23.4709404" lon="120.9186362"></trkpt>
      <trkpt lat="23.4710532" lon="120.9186413"></trkpt>
      <trkpt lat="23.4712352" lon="120.9186196"></trkpt>
      <trkpt lat="23.4713274" lon="120.9186333"></trkpt>
      <trkpt lat="23.4713866" lon="120.9186755"></trkpt>
      <trkpt lat="23.4714903" lon="120.9187869"></trkpt>
      <trkpt lat="23.47155" lon="120.91893"></trkpt>
      <trkpt lat="23.4715958" lon="120.9191017"></trkpt>
      <trkpt lat="23.4716479" lon="120.9192657"></trkpt>
      <trkpt lat="23.4716052" lon="120.9193395"></trkpt>
      <trkpt lat="23.4715349" lon="120.9193731"></trkpt>
      <trkpt lat="23.4714528" lon="120.9194274"></trkpt>
      <trkpt lat="23.4713918" lon="120.9195019"></trkpt>
      <trkpt lat="23.4713735" lon="120.9195764"></trkpt>
      <trkpt lat="23.4713918" lon="120.9197282"></trkpt>
      <trkpt lat="23.4713874" lon="120.9197523"></trkpt>
      <trkpt lat="23.471382" lon="120.9197814"></trkpt>
      <trkpt lat="23.4713231" lon="120.9199752"></trkpt>
      <trkpt lat="23.4712783" lon="120.9200383"></trkpt>
      <trkpt lat="23.4712315" lon="120.9201387"></trkpt>
      <trkpt lat="23.4712469" lon="120.9202134"></trkpt>
      <trkpt lat="23.4712964" lon="120.9202453"></trkpt>
      <trkpt lat="23.4714554" lon="120.9203112"></trkpt>
      <trkpt lat="23.4715433" lon="120.9203777"></trkpt>
      <trkpt lat="23.4716105" lon="120.9204642"></trkpt>
      <trkpt lat="23.47163" lon="120.9205135"></trkpt>
      <trkpt lat="23.4716361" lon="120.9205494"></trkpt>
      <trkpt lat="23.4716166" lon="120.9205707"></trkpt>
      <trkpt lat="23.4715641" lon="120.9205907"></trkpt>
      <trkpt lat="23.4714725" lon="120.9206373"></trkpt>
      <trkpt lat="23.4714408" lon="120.9206812"></trkpt>
      <trkpt lat="23.4714132" lon="120.9207512"></trkpt>
      <trkpt lat="23.4714394" lon="120.9208397"></trkpt>
      <trkpt lat="23.4715176" lon="120.9208748"></trkpt>
      <trkpt lat="23.4716213" lon="120.9209842"></trkpt>
      <trkpt lat="23.4716884" lon="120.920997"></trkpt>
      <trkpt lat="23.4717481" lon="120.9210131"></trkpt>
      <trkpt lat="23.4718326" lon="120.9209617"></trkpt>
      <trkpt lat="23.4719142" lon="120.9209981"></trkpt>
      <trkpt lat="23.4720207" lon="120.9210964"></trkpt>
      <trkpt lat="23.4720959" lon="120.9211153"></trkpt>
      <trkpt lat="23.4721711" lon="120.9211577"></trkpt>
      <trkpt lat="23.4721885" lon="120.921219"></trkpt>
      <trkpt lat="23.4720213" lon="120.9213463"></trkpt>
      <trkpt lat="23.4719673" lon="120.9214113"></trkpt>
      <trkpt lat="23.4720884" lon="120.9214851"></trkpt>
      <trkpt lat="23.472156" lon="120.9215226"></trkpt>
      <trkpt lat="23.472244" lon="120.9215934"></trkpt>
      <trkpt lat="23.4723227" lon="120.9216457"></trkpt>
      <trkpt lat="23.4723938" lon="120.9216838"></trkpt>
      <trkpt lat="23.4724655" lon="120.9216969"></trkpt>
      <trkpt lat="23.4725121" lon="120.9217157"></trkpt>
      <trkpt lat="23.4725173" lon="120.9217609"></trkpt>
      <trkpt lat="23.4724845" lon="120.9217986"></trkpt>
      <trkpt lat="23.4724137" lon="120.9218268"></trkpt>
      <trkpt lat="23.4723498" lon="120.9218738"></trkpt>
      <trkpt lat="23.4723291" lon="120.921951"></trkpt>
      <trkpt lat="23.4723671" lon="120.9221449"></trkpt>
      <trkpt lat="23.4723533" lon="120.9221976"></trkpt>
      <trkpt lat="23.4722337" lon="120.9222722"></trkpt>
      <trkpt lat="23.4722445" lon="120.9223896"></trkpt>
      <trkpt lat="23.4721708" lon="120.9224695"></trkpt>
      <trkpt lat="23.4721187" lon="120.9225372"></trkpt>
      <trkpt lat="23.4720456" lon="120.9225657"></trkpt>
      <trkpt lat="23.4718361" lon="120.9226108"></trkpt>
      <trkpt lat="23.4717084" lon="120.9226794"></trkpt>
      <trkpt lat="23.4715801" lon="120.9227488"></trkpt>
      <trkpt lat="23.4715342" lon="120.922857"></trkpt>
      <trkpt lat="23.4715037" lon="120.9229009"></trkpt>
      <trkpt lat="23.471483" lon="120.9229728"></trkpt>
      <trkpt lat="23.4715049" lon="120.923062"></trkpt>
      <trkpt lat="23.4715513" lon="120.9231937"></trkpt>
      <trkpt lat="23.4716453" lon="120.9233534"></trkpt>
      <trkpt lat="23.4716936" lon="120.9233957"></trkpt>
      <trkpt lat="23.4717497" lon="120.9234236"></trkpt>
      <trkpt lat="23.4717778" lon="120.9234609"></trkpt>
      <trkpt lat="23.4717754" lon="120.9235727"></trkpt>
      <trkpt lat="23.47174" lon="120.9236233"></trkpt>
      <trkpt lat="23.471685" lon="120.9236645"></trkpt>
      <trkpt lat="23.4716374" lon="120.9237258"></trkpt>
      <trkpt lat="23.4716179" lon="120.9238189"></trkpt>
      <trkpt lat="23.4716399" lon="120.9238788"></trkpt>
      <trkpt lat="23.4716985" lon="120.9239347"></trkpt>
      <trkpt lat="23.4717351" lon="120.9239853"></trkpt>
      <trkpt lat="23.4717485" lon="120.9240425"></trkpt>
      <trkpt lat="23.4717424" lon="120.9240878"></trkpt>
      <trkpt lat="23.4717119" lon="120.9241091"></trkpt>
      <trkpt lat="23.4716435" lon="120.9241157"></trkpt>
      <trkpt lat="23.4714507" lon="120.924153"></trkpt>
      <trkpt lat="23.4713094" lon="120.9241804"></trkpt>
      <trkpt lat="23.4712094" lon="120.9242042"></trkpt>
      <trkpt lat="23.4711106" lon="120.924345"></trkpt>
      <trkpt lat="23.4710415" lon="120.9244975"></trkpt>
      <trkpt lat="23.4709759" lon="120.9246142"></trkpt>
      <trkpt lat="23.4709207" lon="120.9246951"></trkpt>
      <trkpt lat="23.4708741" lon="120.9247196"></trkpt>
      <trkpt lat="23.4707256" lon="120.9247346"></trkpt>
      <trkpt lat="23.4705319" lon="120.9247665"></trkpt>
      <trkpt lat="23.4703938" lon="120.9248192"></trkpt>
      <trkpt lat="23.4701935" lon="120.9249622"></trkpt>
      <trkpt lat="23.4700036" lon="120.9250413"></trkpt>
      <trkpt lat="23.4697201" lon="120.9250919"></trkpt>
      <trkpt lat="23.4696639" lon="120.9251398"></trkpt>
      <trkpt lat="23.4696297" lon="120.9252117"></trkpt>
      <trkpt lat="23.4696004" lon="120.9252569"></trkpt>
      <trkpt lat="23.4695321" lon="120.9252809"></trkpt>
      <trkpt lat="23.4693636" lon="120.9253048"></trkpt>
      <trkpt lat="23.4690201" lon="120.9253904"></trkpt>
      <trkpt lat="23.4688578" lon="120.9255134"></trkpt>
      <trkpt lat="23.4687598" lon="120.925529"></trkpt>
      <trkpt lat="23.4685853" lon="120.9254969"></trkpt>
      <trkpt lat="23.4684566" lon="120.9255222"></trkpt>
      <trkpt lat="23.4684152" lon="120.9255554"></trkpt>
      <trkpt lat="23.4684276" lon="120.9256809"></trkpt>
      <trkpt lat="23.4684022" lon="120.9258233"></trkpt>
      <trkpt lat="23.4683533" lon="120.9259218"></trkpt>
      <trkpt lat="23.468263" lon="120.9260043"></trkpt>
      <trkpt lat="23.4680846" lon="120.926036"></trkpt>
      <trkpt lat="23.4679965" lon="120.9260768"></trkpt>
      <trkpt lat="23.4679452" lon="120.9261927"></trkpt>
      <trkpt lat="23.4678443" lon="120.9264244"></trkpt>
      <trkpt lat="23.4678109" lon="120.9264667"></trkpt>
      <trkpt lat="23.4677177" lon="120.9264949"></trkpt>
      <trkpt lat="23.4676158" lon="120.9264798"></trkpt>
      <trkpt lat="23.4674184" lon="120.9263536"></trkpt>
      <trkpt lat="23.4673407" lon="120.9263348"></trkpt>
      <trkpt lat="23.4672527" lon="120.926331"></trkpt>
      <trkpt lat="23.4671496" lon="120.9263617"></trkpt>
      <trkpt lat="23.4669781" lon="120.926555"></trkpt>
      <trkpt lat="23.466778" lon="120.9266976"></trkpt>
      <trkpt lat="23.4667174" lon="120.9268185"></trkpt>
      <trkpt lat="23.466688" lon="120.9269486"></trkpt>
      <trkpt lat="23.4666449" lon="120.9271008"></trkpt>
      <trkpt lat="23.4666139" lon="120.9271398"></trkpt>
      <trkpt lat="23.4663921" lon="120.9273364"></trkpt>
      <trkpt lat="23.46627" lon="120.9274694"></trkpt>
      <trkpt lat="23.4661923" lon="120.9275819"></trkpt>
      <trkpt lat="23.4661112" lon="120.9277329"></trkpt>
      <trkpt lat="23.4661067" lon="120.9279819"></trkpt>
      <trkpt lat="23.466018" lon="120.9281093"></trkpt>
      <trkpt lat="23.465983" lon="120.9282315"></trkpt>
      <trkpt lat="23.4658112" lon="120.9283976"></trkpt>
      <trkpt lat="23.4657561" lon="120.9285658"></trkpt>
      <trkpt lat="23.4656932" lon="120.9286639"></trkpt>
      <trkpt lat="23.4655077" lon="120.9287651"></trkpt>
      <trkpt lat="23.4654135" lon="120.9288559"></trkpt>
      <trkpt lat="23.4653605" lon="120.9289578"></trkpt>
      <trkpt lat="23.4653368" lon="120.9290747"></trkpt>
      <trkpt lat="23.4652954" lon="120.9292133"></trkpt>
      <trkpt lat="23.4652287" lon="120.9292861"></trkpt>
      <trkpt lat="23.4651415" lon="120.9293627"></trkpt>
      <trkpt lat="23.4650688" lon="120.9294312"></trkpt>
      <trkpt lat="23.4650061" lon="120.9295207"></trkpt>
      <trkpt lat="23.4649085" lon="120.9295457"></trkpt>
      <trkpt lat="23.4648298" lon="120.9295327"></trkpt>
      <trkpt lat="23.4647817" lon="120.929699"></trkpt>
      <trkpt lat="23.4647173" lon="120.9298977"></trkpt>
      <trkpt lat="23.4646689" lon="120.9299541"></trkpt>
      <trkpt lat="23.4645583" lon="120.9299867"></trkpt>
      <trkpt lat="23.46448" lon="120.9300471"></trkpt>
      <trkpt lat="23.4643902" lon="120.9300923"></trkpt>
      <trkpt lat="23.464297" lon="120.9301055"></trkpt>
      <trkpt lat="23.464221" lon="120.9300942"></trkpt>
      <trkpt lat="23.4641639" lon="120.9300961"></trkpt>
      <trkpt lat="23.4641199" lon="120.9301227"></trkpt>
      <trkpt lat="23.4640355" lon="120.9301756"></trkpt>
      <trkpt lat="23.463945" lon="120.9303446"></trkpt>
      <trkpt lat="23.4638852" lon="120.9305001"></trkpt>
      <trkpt lat="23.4638791" lon="120.930606"></trkpt>
      <trkpt lat="23.4639292" lon="120.9306285"></trkpt>
      <trkpt lat="23.4639997" lon="120.9306528"></trkpt>
      <trkpt lat="23.4640584" lon="120.9306908"></trkpt>
      <trkpt lat="23.4640955" lon="120.9307646"></trkpt>
      <trkpt lat="23.4641845" lon="120.9308624"></trkpt>
      <trkpt lat="23.4642412" lon="120.9308917"></trkpt>
      <trkpt lat="23.4643352" lon="120.930919"></trkpt>
      <trkpt lat="23.4643939" lon="120.9309184"></trkpt>
      <trkpt lat="23.4644286" lon="120.9310069"></trkpt>
      <trkpt lat="23.4644912" lon="120.9311118"></trkpt>
      <trkpt lat="23.464571" lon="120.9311517"></trkpt>
      <trkpt lat="23.4646194" lon="120.9311977"></trkpt>
      <trkpt lat="23.464634" lon="120.9312821"></trkpt>
      <trkpt lat="23.4646283" lon="120.9313731"></trkpt>
      <trkpt lat="23.4645489" lon="120.9315056"></trkpt>
      <trkpt lat="23.4645248" lon="120.9315413"></trkpt>
      <trkpt lat="23.4646042" lon="120.9315981"></trkpt>
      <trkpt lat="23.4647105" lon="120.9317385"></trkpt>
      <trkpt lat="23.4647739" lon="120.9318257"></trkpt>
      <trkpt lat="23.4648276" lon="120.9318277"></trkpt>
      <trkpt lat="23.4648865" lon="120.9318703"></trkpt>
      <trkpt lat="23.4649626" lon="120.93188"></trkpt>
      <trkpt lat="23.4649945" lon="120.9318117"></trkpt>
      <trkpt lat="23.4650763" lon="120.9317864"></trkpt>
      <trkpt lat="23.4651025" lon="120.9317711"></trkpt>
      <trkpt lat="23.4651147" lon="120.9317432"></trkpt>
      <trkpt lat="23.4651294" lon="120.9316833"></trkpt>
      <trkpt lat="23.4651422" lon="120.9316786"></trkpt>
      <trkpt lat="23.4651765" lon="120.9316959"></trkpt>
      <trkpt lat="23.4651815" lon="120.93174"></trkpt>
      <trkpt lat="23.4651334" lon="120.931835"></trkpt>
      <trkpt lat="23.4651212" lon="120.9318938"></trkpt>
      <trkpt lat="23.465204" lon="120.931941"></trkpt>
      <trkpt lat="23.4654531" lon="120.9320256"></trkpt>
      <trkpt lat="23.4655447" lon="120.9320559"></trkpt>
      <trkpt lat="23.4657295" lon="120.9321353"></trkpt>
      <trkpt lat="23.4658293" lon="120.9321738"></trkpt>
      <trkpt lat="23.4660059" lon="120.9323001"></trkpt>
      <trkpt lat="23.4661526" lon="120.932317"></trkpt>
      <trkpt lat="23.4662367" lon="120.9323514"></trkpt>
      <trkpt lat="23.4662569" lon="120.9323752"></trkpt>
      <trkpt lat="23.4662632" lon="120.9324997"></trkpt>
      <trkpt lat="23.4664267" lon="120.9325644"></trkpt>
      <trkpt lat="23.4665018" lon="120.9325962"></trkpt>
      <trkpt lat="23.4666341" lon="120.9326172"></trkpt>
      <trkpt lat="23.4667546" lon="120.9326256"></trkpt>
      <trkpt lat="23.4668776" lon="120.9326327"></trkpt>
      <trkpt lat="23.4670039" lon="120.9326396"></trkpt>
      <trkpt lat="23.4671154" lon="120.9328316"></trkpt>
      <trkpt lat="23.4670814" lon="120.9329161"></trkpt>
      <trkpt lat="23.4671264" lon="120.9330538"></trkpt>
      <trkpt lat="23.467209" lon="120.9331213"></trkpt>
      <trkpt lat="23.467261" lon="120.9331622"></trkpt>
      <trkpt lat="23.4673582" lon="120.9334852"></trkpt>
      <trkpt lat="23.4673689" lon="120.9336746"></trkpt>
      <trkpt lat="23.4674651" lon="120.9338418"></trkpt>
      <trkpt lat="23.4673701" lon="120.9341305"></trkpt>
      <trkpt lat="23.4674579" lon="120.9343241"></trkpt>
      <trkpt lat="23.4674192" lon="120.9344185"></trkpt>
      <trkpt lat="23.4673434" lon="120.934424"></trkpt>
      <trkpt lat="23.4673165" lon="120.9344391"></trkpt>
      <trkpt lat="23.4672158" lon="120.9346493"></trkpt>
      <trkpt lat="23.4670496" lon="120.9348643"></trkpt>
      <trkpt lat="23.4669346" lon="120.9349821"></trkpt>
      <trkpt lat="23.4668402" lon="120.9351203"></trkpt>
      <trkpt lat="23.466835" lon="120.9351637"></trkpt>
      <trkpt lat="23.4668922" lon="120.9351861"></trkpt>
      <trkpt lat="23.4669095" lon="120.935255"></trkpt>
      <trkpt lat="23.4669438" lon="120.935292"></trkpt>
      <trkpt lat="23.4670605" lon="120.935304"></trkpt>
      <trkpt lat="23.4671287" lon="120.9353492"></trkpt>
      <trkpt lat="23.467202" lon="120.9354056"></trkpt>
      <trkpt lat="23.4672974" lon="120.9354546"></trkpt>
      <trkpt lat="23.4674837" lon="120.9355255"></trkpt>
      <trkpt lat="23.4676081" lon="120.9355403"></trkpt>
      <trkpt lat="23.4678361" lon="120.9356635"></trkpt>
      <trkpt lat="23.4678992" lon="120.9357349"></trkpt>
      <trkpt lat="23.4679652" lon="120.935868"></trkpt>
      <trkpt lat="23.4680384" lon="120.9359532"></trkpt>
      <trkpt lat="23.4681849" lon="120.9360703"></trkpt>
      <trkpt lat="23.4684169" lon="120.9361742"></trkpt>
      <trkpt lat="23.468641" lon="120.9362182"></trkpt>
      <trkpt lat="23.4687205" lon="120.9362502"></trkpt>
      <trkpt lat="23.4687515" lon="120.9362878"></trkpt>
      <trkpt lat="23.468755" lon="120.9363311"></trkpt>
      <trkpt lat="23.4687325" lon="120.9364177"></trkpt>
      <trkpt lat="23.4687101" lon="120.9365475"></trkpt>
      <trkpt lat="23.468679" lon="120.936653"></trkpt>
      <trkpt lat="23.468679" lon="120.9367941"></trkpt>
      <trkpt lat="23.4687853" lon="120.9370221"></trkpt>
      <trkpt lat="23.4689319" lon="120.9373442"></trkpt>
      <trkpt lat="23.4690232" lon="120.9374113"></trkpt>
      <trkpt lat="23.4690602" lon="120.9375905"></trkpt>
      <trkpt lat="23.4691034" lon="120.9376639"></trkpt>
      <trkpt lat="23.4692087" lon="120.9377787"></trkpt>
      <trkpt lat="23.4692294" lon="120.9378295"></trkpt>
      <trkpt lat="23.4693002" lon="120.9380761"></trkpt>
      <trkpt lat="23.4693209" lon="120.938253"></trkpt>
      <trkpt lat="23.4693123" lon="120.9384093"></trkpt>
      <trkpt lat="23.4692864" lon="120.9385448"></trkpt>
      <trkpt lat="23.4692432" lon="120.9386144"></trkpt>
      <trkpt lat="23.4691038" lon="120.9387831"></trkpt>
      <trkpt lat="23.4689985" lon="120.9389525"></trkpt>
      <trkpt lat="23.4688621" lon="120.9391256"></trkpt>
      <trkpt lat="23.4686116" lon="120.9393768"></trkpt>
      <trkpt lat="23.46847" lon="120.9394606"></trkpt>
      <trkpt lat="23.4683052" lon="120.9396164"></trkpt>
      <trkpt lat="23.4681879" lon="120.9397229"></trkpt>
      <trkpt lat="23.4680701" lon="120.9397787"></trkpt>
      <trkpt lat="23.4679838" lon="120.9398446"></trkpt>
      <trkpt lat="23.467806" lon="120.9399368"></trkpt>
      <trkpt lat="23.4676109" lon="120.9400234"></trkpt>
      <trkpt lat="23.4673122" lon="120.9401426"></trkpt>
      <trkpt lat="23.4672023" lon="120.9401971"></trkpt>
      <trkpt lat="23.467101" lon="120.940281"></trkpt>
      <trkpt lat="23.4670118" lon="120.9403222"></trkpt>
      <trkpt lat="23.4668668" lon="120.9403166"></trkpt>
      <trkpt lat="23.466808" lon="120.9403821"></trkpt>
      <trkpt lat="23.4667689" lon="120.9404806"></trkpt>
      <trkpt lat="23.4667628" lon="120.9406377"></trkpt>
      <trkpt lat="23.4667528" lon="120.9408825"></trkpt>
      <trkpt lat="23.4667471" lon="120.9409905"></trkpt>
      <trkpt lat="23.466719" lon="120.9410611"></trkpt>
      <trkpt lat="23.4666775" lon="120.9411183"></trkpt>
      <trkpt lat="23.4666286" lon="120.9411409"></trkpt>
      <trkpt lat="23.4665188" lon="120.9411409"></trkpt>
      <trkpt lat="23.4664663" lon="120.9411609"></trkpt>
      <trkpt lat="23.4663259" lon="120.9412394"></trkpt>
      <trkpt lat="23.4662052" lon="120.9413395"></trkpt>
      <trkpt lat="23.4661035" lon="120.9414141"></trkpt>
      <trkpt lat="23.4660709" lon="120.941438"></trkpt>
      <trkpt lat="23.4659769" lon="120.94147"></trkpt>
      <trkpt lat="23.4658646" lon="120.9414513"></trkpt>
      <trkpt lat="23.4657095" lon="120.9413994"></trkpt>
      <trkpt lat="23.4656302" lon="120.9413928"></trkpt>
      <trkpt lat="23.4655525" lon="120.941389"></trkpt>
      <trkpt lat="23.465473" lon="120.9414285"></trkpt>
      <trkpt lat="23.4653781" lon="120.9415095"></trkpt>
      <trkpt lat="23.4652969" lon="120.9416055"></trkpt>
      <trkpt lat="23.4652451" lon="120.9417824"></trkpt>
      <trkpt lat="23.465221" lon="120.9418398"></trkpt>
      <trkpt lat="23.4651907" lon="120.941868"></trkpt>
      <trkpt lat="23.4651303" lon="120.9419123"></trkpt>
      <trkpt lat="23.4650984" lon="120.9419556"></trkpt>
      <trkpt lat="23.4650794" lon="120.9420064"></trkpt>
      <trkpt lat="23.4650637" lon="120.9421335"></trkpt>
      <trkpt lat="23.4651041" lon="120.9421718"></trkpt>
      <trkpt lat="23.4651652" lon="120.9422635"></trkpt>
      <trkpt lat="23.4651767" lon="120.9423347"></trkpt>
      <trkpt lat="23.4652059" lon="120.9423983"></trkpt>
      <trkpt lat="23.4652024" lon="120.9425117"></trkpt>
      <trkpt lat="23.465134" lon="120.942587"></trkpt>
      <trkpt lat="23.465224" lon="120.942737"></trkpt>
      <trkpt lat="23.4652637" lon="120.9428278"></trkpt>
      <trkpt lat="23.4652797" lon="120.9428766"></trkpt>
      <trkpt lat="23.4652915" lon="120.9429106"></trkpt>
      <trkpt lat="23.4652837" lon="120.942952"></trkpt>
      <trkpt lat="23.4652708" lon="120.9429859"></trkpt>
      <trkpt lat="23.4651734" lon="120.9430787"></trkpt>
      <trkpt lat="23.4650742" lon="120.9431605"></trkpt>
      <trkpt lat="23.4650353" lon="120.9432142"></trkpt>
      <trkpt lat="23.465018" lon="120.9432642"></trkpt>
      <trkpt lat="23.4650075" lon="120.9433271"></trkpt>
      <trkpt lat="23.465039" lon="120.9433948"></trkpt>
      <trkpt lat="23.4650965" lon="120.9434549"></trkpt>
      <trkpt lat="23.4651612" lon="120.9435146"></trkpt>
      <trkpt lat="23.4651694" lon="120.9435651"></trkpt>
      <trkpt lat="23.4651666" lon="120.943604"></trkpt>
      <trkpt lat="23.4651458" lon="120.9436442"></trkpt>
      <trkpt lat="23.4651398" lon="120.9436987"></trkpt>
      <trkpt lat="23.4651373" lon="120.9437284"></trkpt>
      <trkpt lat="23.4651393" lon="120.9437536"></trkpt>
      <trkpt lat="23.4651512" lon="120.9437945"></trkpt>
      <trkpt lat="23.4651633" lon="120.9438192"></trkpt>
      <trkpt lat="23.4651813" lon="120.9438448"></trkpt>
      <trkpt lat="23.4651927" lon="120.9438579"></trkpt>
      <trkpt lat="23.4652077" lon="120.9438661"></trkpt>
      <trkpt lat="23.4652161" lon="120.9438655"></trkpt>
      <trkpt lat="23.4652038" lon="120.9438366"></trkpt>
      <trkpt lat="23.4651848" lon="120.9438077"></trkpt>
      <trkpt lat="23.465199" lon="120.943807"></trkpt>
      <trkpt lat="23.4652147" lon="120.9438188"></trkpt>
      <trkpt lat="23.465247" lon="120.9438416"></trkpt>
      <trkpt lat="23.4653802" lon="120.9438697"></trkpt>
      <trkpt lat="23.4654326" lon="120.9439271"></trkpt>
      <trkpt lat="23.4655157" lon="120.9440176"></trkpt>
      <trkpt lat="23.4655852" lon="120.9440602"></trkpt>
      <trkpt lat="23.4656316" lon="120.9440695"></trkpt>
      <trkpt lat="23.4656927" lon="120.9440735"></trkpt>
      <trkpt lat="23.4658292" lon="120.9440544"></trkpt>
      <trkpt lat="23.465843" lon="120.9440695"></trkpt>
      <trkpt lat="23.4658404" lon="120.9440883"></trkpt>
      <trkpt lat="23.4657601" lon="120.9441617"></trkpt>
      <trkpt lat="23.4657196" lon="120.9442144"></trkpt>
      <trkpt lat="23.4656805" lon="120.9442985"></trkpt>
      <trkpt lat="23.4656125" lon="120.944445"></trkpt>
      <trkpt lat="23.4654623" lon="120.9446887"></trkpt>
      <trkpt lat="23.4653972" lon="120.9448498"></trkpt>
      <trkpt lat="23.4653546" lon="120.9450389"></trkpt>
      <trkpt lat="23.4653535" lon="120.9453779"></trkpt>
      <trkpt lat="23.46533" lon="120.9455122"></trkpt>
      <trkpt lat="23.4653175" lon="120.9456665"></trkpt>
      <trkpt lat="23.4654303" lon="120.9461047"></trkpt>
      <trkpt lat="23.4654486" lon="120.9462271"></trkpt>
      <trkpt lat="23.465473" lon="120.9462444"></trkpt>
      <trkpt lat="23.465495" lon="120.9462391"></trkpt>
      <trkpt lat="23.4655121" lon="120.9462111"></trkpt>
      <trkpt lat="23.4655133" lon="120.9461433"></trkpt>
      <trkpt lat="23.4654925" lon="120.9460168"></trkpt>
      <trkpt lat="23.4654828" lon="120.9458877"></trkpt>
      <trkpt lat="23.4654791" lon="120.9456867"></trkpt>
      <trkpt lat="23.4655633" lon="120.9453955"></trkpt>
      <trkpt lat="23.4655772" lon="120.945371"></trkpt>
      <trkpt lat="23.465597" lon="120.9453701"></trkpt>
      <trkpt lat="23.4656117" lon="120.9453889"></trkpt>
      <trkpt lat="23.4656514" lon="120.9455066"></trkpt>
      <trkpt lat="23.465654" lon="120.94558"></trkpt>
      <trkpt lat="23.465641" lon="120.945644"></trkpt>
      <trkpt lat="23.4656341" lon="120.9457211"></trkpt>
      <trkpt lat="23.465641" lon="120.9457719"></trkpt>
      <trkpt lat="23.4657372" lon="120.9459471"></trkpt>
      <trkpt lat="23.4657691" lon="120.9460262"></trkpt>
      <trkpt lat="23.4657916" lon="120.9460478"></trkpt>
      <trkpt lat="23.4658693" lon="120.9460478"></trkpt>
      <trkpt lat="23.4659038" lon="120.9460676"></trkpt>
      <trkpt lat="23.4659472" lon="120.9461404"></trkpt>
      <trkpt lat="23.4659599" lon="120.9461617"></trkpt>
      <trkpt lat="23.4659867" lon="120.9462474"></trkpt>
      <trkpt lat="23.4660109" lon="120.9463735"></trkpt>
      <trkpt lat="23.4660126" lon="120.9464243"></trkpt>
      <trkpt lat="23.4660005" lon="120.9464685"></trkpt>
      <trkpt lat="23.4659099" lon="120.9465372"></trkpt>
      <trkpt lat="23.4658416" lon="120.9466631"></trkpt>
      <trkpt lat="23.4657623" lon="120.9468588"></trkpt>
      <trkpt lat="23.4657012" lon="120.9470824"></trkpt>
      <trkpt lat="23.4656779" lon="120.9471925"></trkpt>
      <trkpt lat="23.4656813" lon="120.9473017"></trkpt>
      <trkpt lat="23.4657029" lon="120.9474438"></trkpt>
      <trkpt lat="23.4657454" lon="120.9476029"></trkpt>
      <trkpt lat="23.4657554" lon="120.9477623"></trkpt>
      <trkpt lat="23.4658086" lon="120.9478488"></trkpt>
      <trkpt lat="23.4658173" lon="120.9479507"></trkpt>
      <trkpt lat="23.4658122" lon="120.9480747"></trkpt>
      <trkpt lat="23.4657882" lon="120.9481573"></trkpt>
      <trkpt lat="23.4657155" lon="120.9482082"></trkpt>
      <trkpt lat="23.4656836" lon="120.9482722"></trkpt>
      <trkpt lat="23.4656525" lon="120.9484078"></trkpt>
      <trkpt lat="23.4656542" lon="120.9484821"></trkpt>
      <trkpt lat="23.4656801" lon="120.9485226"></trkpt>
      <trkpt lat="23.4657241" lon="120.9485517"></trkpt>
      <trkpt lat="23.4657897" lon="120.9485677"></trkpt>
      <trkpt lat="23.465933" lon="120.948557"></trkpt>
      <trkpt lat="23.4660634" lon="120.9485298"></trkpt>
      <trkpt lat="23.4660867" lon="120.9485392"></trkpt>
      <trkpt lat="23.4661091" lon="120.9485627"></trkpt>
      <trkpt lat="23.4661212" lon="120.9486145"></trkpt>
      <trkpt lat="23.4661324" lon="120.94876"></trkpt>
      <trkpt lat="23.4661488" lon="120.9488089"></trkpt>
      <trkpt lat="23.4661859" lon="120.948856"></trkpt>
      <trkpt lat="23.4662395" lon="120.9488871"></trkpt>
      <trkpt lat="23.4663716" lon="120.9489492"></trkpt>
      <trkpt lat="23.4664694" lon="120.9489886"></trkpt>
      <trkpt lat="23.466539" lon="120.9490312"></trkpt>
      <trkpt lat="23.4665866" lon="120.9490938"></trkpt>
      <trkpt lat="23.4666257" lon="120.949183"></trkpt>
      <trkpt lat="23.466633" lon="120.9492695"></trkpt>
      <trkpt lat="23.4666086" lon="120.949372"></trkpt>
      <trkpt lat="23.4665671" lon="120.9495011"></trkpt>
      <trkpt lat="23.4665549" lon="120.9496009"></trkpt>
      <trkpt lat="23.4665545" lon="120.9496524"></trkpt>
      <trkpt lat="23.4665575" lon="120.9496814"></trkpt>
    </trkseg>
  </trk>
</gpx>
